0 FENGYUN 1C DEB
1 30040U 99025NR  13283.10975777  .00001705  00000-0  90254-3 0  7772
2 30040 098.2678 127.5424 0046113 359.7068 123.2198 14.14369542347310
0 FENGYUN 1C DEB
1 30040U 99025NR  13286.15119703  .00001738  00000-0  91953-3 0  7783
2 30040 098.2670 130.3597 0045991 351.0741 129.2894 14.14379304347744
0 FENGYUN 1C DEB
1 30040U 99025NR  13287.55283870  .00002212  00000-0  11648-2 0  7796
2 30040 098.2668 131.6580 0045912 347.0371 066.1141 14.14384636347944
0 FENGYUN 1C DEB
1 30040U 99025NR  13288.82844019  .00002532  00000-0  13301-2 0  7800
2 30040 098.2665 132.8384 0045924 343.3178 081.2500 14.14390123348129
0 FENGYUN 1C DEB
1 30040U 99025NR  13290.17818233  .00002649  00000-0  13904-2 0  7819
2 30040 098.2662 134.0887 0045852 339.4331 113.8693 14.14395595348319
0 FENGYUN 1C DEB
1 30040U 99025NR  13291.51560446  .00002337  00000-0  12290-2 0  7820
2 30040 098.2660 135.3276 0045792 335.6524 083.7170 14.14402699348508
0 FENGYUN 1C DEB
1 30040U 99025NR  13292.57671084  .00002303  00000-0  12116-2 0  7839
2 30040 098.2660 136.3102 0045738 332.6021 086.7042 14.14406774348651
0 FENGYUN 1C DEB
1 30040U 99025NR  13294.14465494  .00002516  00000-0  13213-2 0  7846
2 30040 098.2661 137.7627 0045650 328.0884 150.4676 14.14413587348874
0 FENGYUN 1C DEB
1 30040U 99025NR  13295.54140072  .00002829  00000-0  14832-2 0  7859
2 30040 098.2662 139.0563 0045577 324.0314 062.5798 14.14419113349073
